KUZGTU 1 (RS47S)        
1 57217U 23091AV  26158.41851362  .00011929  00000+0  41696-3 0  9999
2 57217  97.5063 222.8006 0012298 128.0338 232.2014 15.29634790162886
SONATE-2                
1 59112U 24043Q   26157.67150863  .00045896  00000+0  61269-3 0  9996
2 59112  97.5528 307.4303 0006578 232.3278 127.7381 15.57931629126252
MESAT1                  
1 60209U 24125G   26157.86043104  .00059715  00000+0  67870-3 0  9995
2 60209  97.2307  15.1151 0008562 245.2097 114.8271 15.62093055107953
OOV-CUBE (TUBSAT-30)    
1 60240U 24128F   26157.87486527  .00002819  00000+0  22099-3 0  9991
2 60240  61.9952 261.5303 0045920 131.4461 229.0588 15.02728483104566
COLIBRI-S (RS67S)       
1 61746U 24199M   26158.42722696  .00022956  00000+0  45044-3 0  9992
2 61746  97.3006  32.1949 0006738 324.9470  35.1336 15.47320724135906
HORS 3 (RS81S)          
1 61753U 24199U   26158.43458670  .00037383  00000+0  57147-3 0  9996
2 61753  97.2988  34.0854 0004501 334.5277  25.5754 15.54301938136043
HORS 4 (RS82S)          
1 61754U 24199V   26158.42387537  .00047240  00000+0  61137-3 0  9996
2 61754  97.2935  35.2143 0003278 323.4588  36.6444 15.58771635136129
ARCTICSAT 1 (RS74S)     
1 61762U 24199AD  26157.97744948  .00925874  45821-3  13167-2 0  9998
2 61762  97.2846  41.4067 0007068 201.7931 158.3051 16.05655039136481
SIT-2086                
1 61764U 24199AF  26158.46543669  .00035523  00000+0  58147-3 0  9999
2 61764  97.2946  34.6272 0004600 305.8059  54.2766 15.52413296132922
HYPERVIEW 1G (RS66S)    
1 61772U 24199AP  26158.08473461  .00128521  00000+0  92267-3 0  9990
2 61772  97.2892  37.3121 0002105 296.5346  63.5703 15.73263264133080
ALTAIR (RS65S)          
1 61779U 24199AW  26158.47619666  .00011894  00000+0  33173-3 0  9994
2 61779  97.3041  27.8919 0012126 349.4987  10.6002 15.36832891135620
ASRTU-1 (AO-123)        
1 61781U 24199AY  26158.45570644  .00008542  00000+0  24895-3 0  9994
2 61781  97.3013  27.2145 0013340 351.5689   8.5328 15.35535742132436
SAMSAT-IONOSPHERE (RS7*)
1 61784U 24199BB  26158.42039659  .00044665  00000+0  62265-3 0  9999
2 61784  97.2957  34.0832 0006365 326.6593  33.4261 15.56771292136049
RTU MIREA 1 (RS51S)     
1 61785U 24199BC  26158.46583346  .00053755  00000+0  66227-3 0  9993
2 61785  97.2948  34.9128 0005823 320.7581  39.3253 15.60034313132950
TEVEL2-4                
1 63213U 25052D   26158.20467444  .00018263  00000+0  55222-3 0  9990
2 63213  97.3916  54.5829 0004366 121.8176 238.3493 15.34259808 68584
TEVEL2-5                
1 63214U 25052E   26157.96315887  .00019993  00000+0  60754-3 0  9993
2 63214  97.3910  54.2903 0004302 124.6483 235.5166 15.34083480 68544
TEVEL2-6                
1 63215U 25052F   26158.43185140  .00018790  00000+0  57157-3 0  9991
2 63215  97.3911  54.7443 0004415 123.4001 236.7664 15.34062695 68617
TEVEL2-1                
1 63217U 25052H   26158.26177888  .00018589  00000+0  57497-3 0  9997
2 63217  97.3886  54.2098 0004076 132.8480 227.3106 15.33536764 68573
TEVEL2-3                
1 63218U 25052J   26158.45251815  .00018640  00000+0  57543-3 0  9992
2 63218  97.3887  54.4214 0004203 132.9368 227.2228 15.33596595 68601
TEVEL2-2                
1 63219U 25052K   26158.45789772  .00018386  00000+0  56848-3 0  9995
2 63219  97.3887  54.4083 0004125 134.0288 226.1295 15.33551437 68601
TEVEL2-9                
1 63237U 25052AD  26158.22683426  .00016944  00000+0  55696-3 0  9997
2 63237  97.3947  53.5736 0006800 159.0385 201.1137 15.31593039 68509
TEVEL2-7                
1 63238U 25052AE  26158.20050968  .00016768  00000+0  55614-3 0  9999
2 63238  97.3946  53.4677 0006886 160.4105 199.7402 15.31304674 68492
TEVEL2-8                
1 63239U 25052AF  26158.20865697  .00016330  00000+0  54201-3 0  9999
2 63239  97.3954  53.4544 0007023 160.4305 199.7207 15.31287141 68493
INNOSAT 16 (RS92S7)     
1 64878U 25155C   26158.49026508  .00006179  00000+0  24763-3 0  9994
2 64878  97.4559 125.6501 0009408 210.8557 149.2129 15.25354964 79191
GEOSCAN 6 (RS92S6)      
1 64879U 25155D   26158.50252602  .00009911  00000+0  34394-3 0  9991
2 64879  97.4553 127.0185 0007048 195.5734 164.5290 15.29970308 79283
GEOSCAN 1 (RS92S1)      
1 64880U 25155E   26158.44331580  .00011206  00000+0  38157-3 0  9990
2 64880  97.4550 127.0987 0006967 195.7556 164.3469 15.30550843 79281
239ALFEROV (RS61S)      
1 64881U 25155F   26158.49197554  .00014181  00000+0  45120-3 0  9990
2 64881  97.4552 127.6768 0006635 191.8776 168.2310 15.32681827 79322
GEOSCAN 2 (RS92S2)      
1 64890U 25155Q   26158.24262633  .00011091  00000+0  37463-3 0  9992
2 64890  97.4549 127.0457 0006808 181.1852 178.9374 15.30817710 79267
GEOSCAN 5 (RS92S5)      
1 64891U 25155R   26158.48301213  .00014148  00000+0  44583-3 0  9994
2 64891  97.4543 127.8017 0005307 195.0119 165.0966 15.32999630 79331
GEOSCAN 4 (RS92S4)      
1 64892U 25155S   26158.46816071  .00014951  00000+0  46875-3 0  9994
2 64892  97.4547 127.8323 0005368 195.6412 164.4665 15.33148497 79332
